{"type": "FeatureCollection", "features": [{"type": "Feature", "properties": {"norad_id": 24946, "name": "IRIDIUM 33", "group": "iridium-33-debris", "lat": -60.92155491839864, "lon": 65.02382488197938, "alt_km": 780.5340530639014, "timestamp": "2025-12-04T19:33:59.984733+00:00", "meta": {"OBJECT_NAME": "IRIDIUM 33", "OBJECT_ID": "1997-051C", "EPOCH": "2025-12-04T06:27:47.288448", "MEAN_MOTION": 14.35028286, "ECCENTRICITY": 0.00061908, "INCLINATION": 86.3871, "RA_OF_ASC_NODE": 71.7767, "ARG_OF_PERICENTER": 232.9951, "MEAN_ANOMALY": 127.0679, "EPHEMERIS_TYPE": 0, "CLASSIFICATION_TYPE": "U", "NORAD_CAT_ID": 24946, "ELEMENT_SET_NO": 999, "REV_AT_EPOCH": 47713, "BSTAR": 0.00025844364, "MEAN_MOTION_DOT": 7.55e-06, "MEAN_MOTION_DDOT": 0}, "tle": {"line1": "1 24946U 97051C   25338.26929732  .00000755  00000+0  25844-3 0  9990", "line2": "2 24946  86.3871  71.7767 0006190 232.9951 127.0679 14.35028286477135"}}, "geometry": {"type": "Point", "coordinates": [65.02382488197938, -60.92155491839864]}}, {"type": "Feature", "properties": {"norad_id": 33773, "name": "IRIDIUM 33 DEB", "group": "iridium-33-debris", "lat": 21.763524359135495, "lon": 65.38660953241416, "alt_km": 754.7626189460589, "timestamp": "2025-12-04T19:33:59.984771+00:00", "meta": {"OBJECT_NAME": "IRIDIUM 33 DEB", "OBJECT_ID": "1997-051L", "EPOCH": "2025-12-04T07:49:03.732960", "MEAN_MOTION": 14.4322903, "ECCENTRICITY": 0.00115857, "INCLINATION": 86.4014, "RA_OF_ASC_NODE": 64.1543, "ARG_OF_PERICENTER": 172.2556, "MEAN_ANOMALY": 187.8826, "EPHEMERIS_TYPE": 0, "CLASSIFICATION_TYPE": "U", "NORAD_CAT_ID": 33773, "ELEMENT_SET_NO": 999, "REV_AT_EPOCH": 88226, "BSTAR": 0.00068255164, "MEAN_MOTION_DOT": 2.316e-05, "MEAN_MOTION_DDOT": 0}, "tle": {"line1": "1 33773U 97051L   25338.32573765  .00002316  00000+0  68255-3 0  9994", "line2": "2 33773  86.4014  64.1543 0011585 172.2556 187.8826 14.43229030882263"}}, "geometry": {"type": "Point", "coordinates": [65.38660953241416, 21.763524359135495]}}, {"type": "Feature", "properties": {"norad_id": 33775, "name": "IRIDIUM 33 DEB", "group": "iridium-33-debris", "lat": 23.478309179468837, "lon": -128.64635516117346, "alt_km": 744.6084137878888, "timestamp": "2025-12-04T19:33:59.984784+00:00", "meta": {"OBJECT_NAME": "IRIDIUM 33 DEB", "OBJECT_ID": "1997-051N", "EPOCH": "2025-12-04T05:45:50.599872", "MEAN_MOTION": 14.41440415, "ECCENTRICITY": 0.00133051, "INCLINATION": 86.3643, "RA_OF_ASC_NODE": 53.1816, "ARG_OF_PERICENTER": 181.5813, "MEAN_ANOMALY": 232.3951, "EPHEMERIS_TYPE": 0, "CLASSIFICATION_TYPE": "U", "NORAD_CAT_ID": 33775, "ELEMENT_SET_NO": 999, "REV_AT_EPOCH": 88018, "BSTAR": 0.00068123512, "MEAN_MOTION_DOT": 2.23e-05, "MEAN_MOTION_DDOT": 0}, "tle": {"line1": "1 33775U 97051N   25338.24016898  .00002230  00000+0  68124-3 0  9996", "line2": "2 33775  86.3643  53.1816 0013305 181.5813 232.3951 14.41440415880188"}}, "geometry": {"type": "Point", "coordinates": [-128.64635516117346, 23.478309179468837]}}, {"type": "Feature", "properties": {"norad_id": 33776, "name": "IRIDIUM 33 DEB", "group": "iridium-33-debris", "lat": 61.70471719480296, "lon": -102.60536031541463, "alt_km": 760.1208794557233, "timestamp": "2025-12-04T19:33:59.984795+00:00", "meta": {"OBJECT_NAME": "IRIDIUM 33 DEB", "OBJECT_ID": "1997-051P", "EPOCH": "2025-12-04T07:34:38.292672", "MEAN_MOTION": 14.38210128, "ECCENTRICITY": 0.00134368, "INCLINATION": 86.4037, "RA_OF_ASC_NODE": 84.3132, "ARG_OF_PERICENTER": 219.4999, "MEAN_ANOMALY": 193.8415, "EPHEMERIS_TYPE": 0, "CLASSIFICATION_TYPE": "U", "NORAD_CAT_ID": 33776, "ELEMENT_SET_NO": 999, "REV_AT_EPOCH": 87961, "BSTAR": 0.00060641672, "MEAN_MOTION_DOT": 1.862e-05, "MEAN_MOTION_DDOT": 0}, "tle": {"line1": "1 33776U 97051P   25338.31572098  .00001862  00000+0  60642-3 0  9991", "line2": "2 33776  86.4037  84.3132 0013436 219.4999 193.8415 14.38210128879619"}}, "geometry": {"type": "Point", "coordinates": [-102.60536031541463, 61.70471719480296]}}, {"type": "Feature", "properties": {"norad_id": 33777, "name": "IRIDIUM 33 DEB", "group": "iridium-33-debris", "lat": 48.04054654024999, "lon": -145.38704558167422, "alt_km": 706.7953531388121, "timestamp": "2025-12-04T19:33:59.984806+00:00", "meta": {"OBJECT_NAME": "IRIDIUM 33 DEB", "OBJECT_ID": "1997-051Q", "EPOCH": "2025-12-04T04:06:47.905056", "MEAN_MOTION": 14.5551004, "ECCENTRICITY": 0.0005147, "INCLINATION": 86.3799, "RA_OF_ASC_NODE": 38.9304, "ARG_OF_PERICENTER": 289.5346, "MEAN_ANOMALY": 70.5306, "EPHEMERIS_TYPE": 0, "CLASSIFICATION_TYPE": "U", "NORAD_CAT_ID": 33777, "ELEMENT_SET_NO": 999, "REV_AT_EPOCH": 88409, "BSTAR": 0.0021194, "MEAN_MOTION_DOT": 9.25e-05, "MEAN_MOTION_DDOT": 0}, "tle": {"line1": "1 33777U 97051Q   25338.17138779  .00009250  00000+0  21194-2 0  9997", "line2": "2 33777  86.3799  38.9304 0005147 289.5346  70.5306 14.55510040884097"}}, "geometry": {"type": "Point", "coordinates": [-145.38704558167422, 48.04054654024999]}}, {"type": "Feature", "properties": {"norad_id": 33850, "name": "IRIDIUM 33 DEB", "group": "iridium-33-debris", "lat": 61.85282382306478, "lon": -153.27994988782095, "alt_km": 742.5288859889188, "timestamp": "2025-12-04T19:33:59.984817+00:00", "meta": {"OBJECT_NAME": "IRIDIUM 33 DEB", "OBJECT_ID": "1997-051T", "EPOCH": "2025-12-04T06:00:53.789184", "MEAN_MOTION": 14.42119961, "ECCENTRICITY": 0.00113089, "INCLINATION": 86.3424, "RA_OF_ASC_NODE": 33.8294, "ARG_OF_PERICENTER": 187.7158, "MEAN_ANOMALY": 240.6619, "EPHEMERIS_TYPE": 0, "CLASSIFICATION_TYPE": "U", "NORAD_CAT_ID": 33850, "ELEMENT_SET_NO": 999, "REV_AT_EPOCH": 88030, "BSTAR": 0.00078145382, "MEAN_MOTION_DOT": 2.59e-05, "MEAN_MOTION_DDOT": 0}, "tle": {"line1": "1 33850U 97051T   25338.25062256  .00002590  00000+0  78145-3 0  9993", "line2": "2 33850  86.3424  33.8294 0011308 187.7158 240.6619 14.42119961880302"}}, "geometry": {"type": "Point", "coordinates": [-153.27994988782095, 61.85282382306478]}}, {"type": "Feature", "properties": {"norad_id": 33853, "name": "IRIDIUM 33 DEB", "group": "iridium-33-debris", "lat": -69.49830481856122, "lon": -17.497078142726345, "alt_km": 773.381324675649, "timestamp": "2025-12-04T19:33:59.984827+00:00", "meta": {"OBJECT_NAME": "IRIDIUM 33 DEB", "OBJECT_ID": "1997-051W", "EPOCH": "2025-12-04T01:16:34.217184", "MEAN_MOTION": 13.98972091, "ECCENTRICITY": 0.02067962, "INCLINATION": 86.0003, "RA_OF_ASC_NODE": 353.6212, "ARG_OF_PERICENTER": 262.6777, "MEAN_ANOMALY": 150.4676, "EPHEMERIS_TYPE": 0, "CLASSIFICATION_TYPE": "U", "NORAD_CAT_ID": 33853, "ELEMENT_SET_NO": 999, "REV_AT_EPOCH": 85224, "BSTAR": 0.0041696417, "MEAN_MOTION_DOT": 7.249e-05, "MEAN_MOTION_DDOT": 0}, "tle": {"line1": "1 33853U 97051W   25338.05317381  .00007249  00000+0  41696-2 0  9992", "line2": "2 33853  86.0003 353.6212 0206796 262.6777 150.4676 13.98972091852249"}}, "geometry": {"type": "Point", "coordinates": [-17.497078142726345, -69.49830481856122]}}, {"type": "Feature", "properties": {"norad_id": 33860, "name": "IRIDIUM 33 DEB", "group": "iridium-33-debris", "lat": 55.141077911375916, "lon": 35.953535475933315, "alt_km": 659.7140908107012, "timestamp": "2025-12-04T19:33:59.984837+00:00", "meta": {"OBJECT_NAME": "IRIDIUM 33 DEB", "OBJECT_ID": "1997-051AD", "EPOCH": "2025-12-04T04:51:22.821408", "MEAN_MOTION": 14.67190836, "ECCENTRICITY": 0.00085256, "INCLINATION": 86.3847, "RA_OF_ASC_NODE": 31.0167, "ARG_OF_PERICENTER": 26.0079, "MEAN_ANOMALY": 33.9678, "EPHEMERIS_TYPE": 0, "CLASSIFICATION_TYPE": "U", "NORAD_CAT_ID": 33860, "ELEMENT_SET_NO": 999, "REV_AT_EPOCH": 88597, "BSTAR": 0.0030445761, "MEAN_MOTION_DOT": 0.00017185, "MEAN_MOTION_DDOT": 0}, "tle": {"line1": "1 33860U 97051AD  25338.20234747  .00017185  00000+0  30446-2 0  9992", "line2": "2 33860  86.3847  31.0167 0008525  26.0079  33.9678 14.67190836885978"}}, "geometry": {"type": "Point", "coordinates": [35.953535475933315, 55.141077911375916]}}, {"type": "Feature", "properties": {"norad_id": 33862, "name": "IRIDIUM 33 DEB", "group": "iridium-33-debris", "lat": 30.41536600380944, "lon": 43.13643217309772, "alt_km": 645.6173199831655, "timestamp": "2025-12-04T19:33:59.984847+00:00", "meta": {"OBJECT_NAME": "IRIDIUM 33 DEB", "OBJECT_ID": "1997-051AF", "EPOCH": "2025-12-04T04:57:42.158016", "MEAN_MOTION": 14.69253442, "ECCENTRICITY": 0.00540042, "INCLINATION": 86.4101, "RA_OF_ASC_NODE": 41.2924, "ARG_OF_PERICENTER": 97.6475, "MEAN_ANOMALY": 316.8072, "EPHEMERIS_TYPE": 0, "CLASSIFICATION_TYPE": "U", "NORAD_CAT_ID": 33862, "ELEMENT_SET_NO": 999, "REV_AT_EPOCH": 88698, "BSTAR": 0.0038146187, "MEAN_MOTION_DOT": 0.00023067, "MEAN_MOTION_DDOT": 0}, "tle": {"line1": "1 33862U 97051AF  25338.20673794  .00023067  00000+0  38146-2 0  9994", "line2": "2 33862  86.4101  41.2924 0054004  97.6475 316.8072 14.69253442886983"}}, "geometry": {"type": "Point", "coordinates": [43.13643217309772, 30.41536600380944]}}, {"type": "Feature", "properties": {"norad_id": 33866, "name": "IRIDIUM 33 DEB", "group": "iridium-33-debris", "lat": -84.15179197355732, "lon": 57.205534323656316, "alt_km": 811.2521267631573, "timestamp": "2025-12-04T19:33:59.984857+00:00", "meta": {"OBJECT_NAME": "IRIDIUM 33 DEB", "OBJECT_ID": "1997-051AK", "EPOCH": "2025-12-04T02:15:41.512608", "MEAN_MOTION": 14.25225857, "ECCENTRICITY": 0.01137571, "INCLINATION": 86.2998, "RA_OF_ASC_NODE": 96.6929, "ARG_OF_PERICENTER": 188.9524, "MEAN_ANOMALY": 347.038, "EPHEMERIS_TYPE": 0, "CLASSIFICATION_TYPE": "U", "NORAD_CAT_ID": 33866, "ELEMENT_SET_NO": 999, "REV_AT_EPOCH": 86687, "BSTAR": 0.0013814222, "MEAN_MOTION_DOT": 3.492e-05, "MEAN_MOTION_DDOT": 0}, "tle": {"line1": "1 33866U 97051AK  25338.09423047  .00003492  00000+0  13814-2 0  9994", "line2": "2 33866  86.2998  96.6929 0113757 188.9524 347.0380 14.25225857866873"}}, "geometry": {"type": "Point", "coordinates": [57.205534323656316, -84.15179197355732]}}]}